IRIDIUM 136             
1 42962U 17061H   23209.21400658  .00000293  00000+0  97620-4 0  9991
2 42962  86.3966 106.1741 0001927  81.7270 278.4144 14.34220297303625
